GSAT0101 (PRN E11)      
1 37846U 11060A   20347.86056049 -.00000078  00000-0  00000+0 0  9995
2 37846  56.7359  36.3880 0002583 304.6528  55.3859  1.70475103 56946
GSAT0102 (PRN E12)      
1 37847U 11060B   20347.19384084 -.00000077  00000-0  00000-0 0  9995
2 37847  56.7358  36.4059 0004538 293.1648  63.8525  1.70475246 56809
GSAT0103 (PRN E19)      
1 38857U 12055A   20348.48883950  .00000073  00000-0  00000-0 0  9996
2 38857  55.0091 156.8536 0001200 229.3615 130.6277  1.70473653 50869
GSAT0104 (PRN E20)      
1 38858U 12055B   20347.83667126  .00000080  00000-0  00000-0 0  9998
2 38858  55.0093 156.8710 0000482 141.8689 218.1401  1.70473591 50857
GSAT0201 (PRN E18)      
1 40128U 14050A   20347.81099060 -.00000098  00000-0  00000-0 0  9992
2 40128  50.5357 354.2603 1654216 105.2109 273.6799  1.85519318 40983
GSAT0202 (PRN E14)      
1 40129U 14050B   20348.61306582 -.00000102  00000-0  00000-0 0  9998
2 40129  50.5698 353.2712 1651737 106.0502 272.7688  1.85519961 43167
GSAT0203 (PRN E26)      
1 40544U 15017A   20347.05510572 -.00000077  00000-0  00000-0 0  9997
2 40544  56.5291  36.5193 0005293 248.2167 111.7881  1.70474917 34883
GSAT0204 (PRN E22)      
1 40545U 15017B   20346.83608291 -.00000077  00000-0  00000+0 0  9998
2 40545  56.5354  36.5420 0003644 222.7028 137.3296  1.70474896 35542
GSAT0205 (PRN E24)      
1 40889U 15045A   20348.25121971 -.00000034  00000-0  00000-0 0  9997
2 40889  56.0155 277.1768 0005248 358.3360   1.6681  1.70474442 32716
GSAT0206 (PRN E30)      
1 40890U 15045B   20346.12440499 -.00000035  00000-0  00000+0 0  9992
2 40890  56.0167 277.2319 0003780 343.6574  16.3321  1.70474467 32707
GSAT0209 (PRN E09)      
1 41174U 15079A   20348.64441579  .00000071  00000-0  00000-0 0  9994
2 41174  55.0240 156.5485 0002593 343.0448  16.9440  1.70473312 30650
GSAT0208 (PRN E08)      
1 41175U 15079B   20347.69098529  .00000082  00000-0  00000-0 0  9994
2 41175  55.0213 156.5740 0002013 357.2775   2.7276  1.70473276 31056
GSAT0211 (PRN E02)      
1 41549U 16030A   20347.22561799 -.00000035  00000-0  00000-0 0  9999
2 41549  56.1585 277.0765 0004897 322.0234  37.9446  1.70474209 28358
GSAT0210 (PRN E01)      
1 41550U 16030B   20347.51849259 -.00000035  00000-0  00000-0 0  9993
2 41550  56.1580 277.0699 0004041 298.8803  61.0825  1.70474213 28358
GSAT0207 (PRN E07)      
1 41859U 16069A   20348.35060213  .00000074  00000-0  00000-0 0  9997
2 41859  54.6820 156.8746 0001985 321.2939  38.6928  1.70473268 25262
GSAT0212 (PRN E03)      
1 41860U 16069B   20347.61747896  .00000082  00000-0  00000-0 0  9995
2 41860  54.6797 156.8936 0002244  13.9540 346.0599  1.70473243 25342
GSAT0213 (PRN E04)      
1 41861U 16069C   20346.22344905  .00000095  00000-0  00000-0 0  9990
2 41861  54.6820 156.9364 0001087 262.4137  97.5919  1.70473319 25329
GSAT0214 (PRN E05)      
1 41862U 16069D   20346.95710188  .00000089  00000-0  00000-0 0  9994
2 41862  54.6797 156.9113 0000285 295.1794  64.8306  1.70473325 25320
GSAT0215 (PRN E21)      
1 43055U 17079A   20347.44717976 -.00000035  00000-0  00000-0 0  9991
2 43055  56.1335 276.9112 0003324 297.8966  62.0731  1.70473404 18670
GSAT0216 (PRN E25)      
1 43056U 17079B   20348.32640649 -.00000033  00000-0  00000-0 0  9990
2 43056  56.1330 276.8868 0005067 290.4971  69.4552  1.70473530 18700
GSAT0217 (PRN E27)      
1 43057U 17079C   20345.02696442 -.00000031  00000-0  00000-0 0  9995
2 43057  56.1340 276.9778 0004931 301.0045  58.9514  1.70473505 18638
GSAT0218 (PRN E31)      
1 43058U 17079D   20348.17990851 -.00000034  00000-0  00000-0 0  9999
2 43058  56.1315 276.8885 0005398 285.8801  74.0664  1.70473510 18716
GSAT0221 (PRN E15)      
1 43564U 18060A   20346.31913854 -.00000075  00000-0  00000-0 0  9999
2 43564  56.9149  36.2129 0005706 262.7282  97.2674  1.70476009 14833
GSAT0222 (PRN E33)      
1 43565U 18060B   20348.29873718 -.00000078  00000-0  00000-0 0  9996
2 43565  56.9181  36.1584 0005332 269.2606  90.7423  1.70476035 14919
GSAT0219 (PRN E36)      
1 43566U 18060C   20347.34596969 -.00000077  00000-0  00000-0 0  9991
2 43566  56.9186  36.1862 0005134 264.7036  95.3002  1.70475856 14870
GSAT0220 (PRN E13)      
1 43567U 18060D   20348.15244515 -.00000078  00000-0  00000-0 0  9990
2 43567  56.9183  36.1646 0005189 265.0023  95.0023  1.70475689 14872
